[{"OBJECT_NAME":"STARLINK-3449","OBJECT_ID":"2022-016AH","EPOCH":"2026-03-09T23:09:30.014208","MEAN_MOTION":15.08832097,"ECCENTRICITY":0.00013727,"INCLINATION":53.218,"RA_OF_ASC_NODE":317.8855,"ARG_OF_PERICENTER":87.9705,"MEAN_ANOMALY":272.1444,"EPHEMERIS_TYPE":0,"CLASSIFICATION_TYPE":"U","NORAD_CAT_ID":51745,"ELEMENT_SET_NO":999,"REV_AT_EPOCH":22360,"BSTAR":3.8558592e-5,"MEAN_MOTION_DOT":3.26e-6,"MEAN_MOTION_DDOT":0},{"OBJECT_NAME":"SL-8 DEB","OBJECT_ID":"1986-052E","EPOCH":"2026-03-08T09:24:38.203776","MEAN_MOTION":15.11223117,"ECCENTRICITY":0.00100672,"INCLINATION":74.0059,"RA_OF_ASC_NODE":66.8929,"ARG_OF_PERICENTER":314.4934,"MEAN_ANOMALY":45.5435,"EPHEMERIS_TYPE":0,"CLASSIFICATION_TYPE":"U","NORAD_CAT_ID":16867,"ELEMENT_SET_NO":999,"REV_AT_EPOCH":11371,"BSTAR":0.0018795551,"MEAN_MOTION_DOT":0.0003173,"MEAN_MOTION_DDOT":0}]
